STARLINK-5816           
1 55778U 23028AP  26068.86960899  .00000717  00000+0  67910-4 0  9995
2 55778  69.9999 223.8557 0003127 268.8110  91.2690 14.98317353166561
LEMUR-2-ARIANNA         
1 62699U 25009CU  26068.74082662  .00009084  00000+0  71790-3 0  9992
2 62699  97.6996 151.0445 0004640 147.3928 212.7583 15.00881954 62634
